[{"OBJECT_NAME":"CHUANGXIN 16B (CX-16B)","OBJECT_ID":"2022-102B","EPOCH":"2026-03-09T15:40:32.180736","MEAN_MOTION":15.37969866,"ECCENTRICITY":0.0001033,"INCLINATION":28.9915,"RA_OF_ASC_NODE":159.7576,"ARG_OF_PERICENTER":174.5964,"MEAN_ANOMALY":185.4655,"EPHEMERIS_TYPE":0,"CLASSIFICATION_TYPE":"U","NORAD_CAT_ID":53876,"ELEMENT_SET_NO":999,"REV_AT_EPOCH":19133,"BSTAR":0.00098651,"MEAN_MOTION_DOT":0.00038409,"MEAN_MOTION_DDOT":0},{"OBJECT_NAME":"OBJECT A","OBJECT_ID":"2024-153A","EPOCH":"2026-03-09T23:23:00.048768","MEAN_MOTION":15.38255179,"ECCENTRICITY":0.0008915,"INCLINATION":97.6577,"RA_OF_ASC_NODE":205.6534,"ARG_OF_PERICENTER":134.2023,"MEAN_ANOMALY":225.9955,"EPHEMERIS_TYPE":0,"CLASSIFICATION_TYPE":"U","NORAD_CAT_ID":60745,"ELEMENT_SET_NO":999,"REV_AT_EPOCH":8481,"BSTAR":0.0015987214,"MEAN_MOTION_DOT":0.00060651,"MEAN_MOTION_DDOT":0}]
